OBJECT_NAME,OBJECT_ID,EPOCH,MEAN_MOTION,ECCENTRICITY,INCLINATION,RA_OF_ASC_NODE,ARG_OF_PERICENTER,MEAN_ANOMALY,EPHEMERIS_TYPE,CLASSIFICATION_TYPE,NORAD_CAT_ID,ELEMENT_SET_NO,REV_AT_EPOCH,BSTAR,MEAN_MOTION_DOT,MEAN_MOTION_DDOT
STARLINK-36148,2025-293C,2026-06-16T03:34:52.722048,14.98336021,.0003834,69.9997,206.3039,268.9449,91.1270,0,U,67005,999,2963,.23746E-3,.2742E-4,0
STARLINK-36156,2025-293D,2026-06-16T03:46:53.907168,14.98333163,.0003924,69.9998,206.3309,266.1136,93.9574,0,U,67006,999,2963,.97057E-4,.1065E-4,0
STARLINK-36123,2025-293E,2026-06-16T04:22:55.744032,14.98335484,.0003741,69.9995,206.0161,267.4499,92.6232,0,U,67007,999,2964,.2476E-3,.2863E-4,0
STARLINK-36163,2025-293F,2026-06-16T04:58:59.929248,14.98347947,.0004173,69.9996,206.1055,265.8815,94.1868,0,U,67008,999,2964,.31864E-3,.3713E-4,0
STARLINK-36118,2025-293G,2026-06-16T04:34:56.997408,14.98336088,.000404,69.9995,206.0451,268.7038,91.3658,0,U,67009,999,2964,.29893E-3,.3476E-4,0
STARLINK-36189,2025-293H,2026-06-16T04:04:53.735232,14.98334885,.0004096,69.9999,205.9730,268.4285,91.6405,0,U,67010,999,2964,.15688E-3,.178E-4,0
STARLINK-36167,2025-293J,2026-06-16T04:10:54.378336,14.98339291,.0003532,69.9995,205.9869,266.7210,93.3545,0,U,67011,999,2964,.55016E-4,.564E-5,0
STARLINK-36175,2025-293K,2026-06-16T03:52:54.755040,14.98337085,.000378,70.0002,206.3446,265.1083,94.9644,0,U,67012,999,2963,.28461E-3,.3305E-4,0
STARLINK-35856,2025-293L,2026-06-16T03:40:53.328864,14.98335424,.0004333,69.9999,206.3160,266.6604,93.4060,0,U,67013,999,2963,.23965E-3,.2768E-4,0
STARLINK-36207,2025-293M,2026-06-16T03:28:53.224608,14.98334784,.0003316,69.9995,206.2859,267.7123,92.3656,0,U,67014,999,2963,.31031E-3,.3612E-4,0
STARLINK-36093,2025-293N,2026-06-16T04:40:57.625824,14.98337885,.0003799,69.9996,206.0605,268.4487,91.6237,0,U,67015,999,2964,.22015E-3,.2535E-4,0
STARLINK-36120,2025-293P,2026-06-16T04:52:58.683936,14.98336607,.0004224,69.9996,206.0883,267.4081,92.6594,0,U,67016,999,2964,.20624E-3,.2369E-4,0
STARLINK-35498,2025-293Q,2026-06-16T04:28:56.331840,14.98334781,.0003874,69.9995,206.0295,267.2754,92.7961,0,U,67017,999,2964,.21158E-3,.2433E-4,0
STARLINK-36106,2025-293R,2026-06-16T04:16:55.077600,14.98334634,.0003819,69.9997,206.0023,267.7225,92.3497,0,U,67018,999,2964,.24821E-3,.287E-4,0
STARLINK-35688,2025-293S,2026-06-16T03:59:08.931840,14.98331516,.0003871,70.0003,206.3592,265.8330,94.2386,0,U,67019,999,2963,-.28979E-4,-.439E-5,0
STARLINK-36172,2025-293T,2026-06-16T04:47:12.454080,14.98336633,.0003578,69.9995,206.0734,269.0525,91.0225,0,U,67020,999,2963,.21312E-3,.2451E-4,0
STARLINK-36184,2025-293U,2026-06-16T03:35:07.035072,14.98331927,.0003652,70.0003,206.2994,267.0442,93.0299,0,U,67021,999,2963,.70077E-4,.743E-5,0
STARLINK-36209,2025-293V,2026-06-16T04:23:09.969792,14.98335721,.0003753,69.9995,206.0144,267.6876,92.3853,0,U,67022,999,2964,.24979E-3,.2889E-4,0
STARLINK-36191,2025-293W,2026-06-16T03:47:08.900160,14.98329610,.0003149,69.9995,206.3298,269.2148,90.8651,0,U,67023,999,2963,.29927E-3,.348E-4,0
STARLINK-36192,2025-293X,2026-06-16T04:59:13.576128,14.98338014,.000426,69.9992,206.1011,267.8507,92.2164,0,U,67024,999,2964,.23559E-3,.272E-4,0
STARLINK-36178,2025-293Y,2026-06-16T04:35:11.244768,14.98335805,.0003646,69.9996,206.0432,268.5357,91.5384,0,U,67025,999,2964,.23207E-3,.2678E-4,0
STARLINK-36176,2025-293Z,2026-06-16T04:05:06.739296,14.98388572,.0003807,69.9994,205.9699,265.6273,94.4451,0,U,67026,999,2963,.13942E-2,.16608E-3,0
STARLINK-36171,2025-293AA,2026-06-16T04:11:08.801952,14.98332309,.000379,69.9994,205.9871,268.4443,91.6282,0,U,67027,999,2964,.18771E-3,.2148E-4,0
STARLINK-36132,2025-293AB,2026-06-16T03:41:07.603872,14.98336296,.0004048,69.9998,206.3130,269.1600,90.9095,0,U,67028,999,2963,.24826E-3,.2871E-4,0
STARLINK-36190,2025-293AC,2026-06-16T03:53:09.182112,14.98327172,.0003507,69.9997,206.3442,267.7836,92.2921,0,U,67029,999,2963,.29244E-3,.3398E-4,0
STARLINK-36138,2025-294A,2026-06-15T19:21:10.364544,15.27591220,.00013439,42.9959,204.0779,267.3628,92.7069,0,U,67030,999,2980,.44759176E-3,.12079E-3,0
STARLINK-36150,2025-294B,2026-06-15T19:56:05.810784,15.27579600,.00007072,42.9960,203.4012,251.9987,108.0787,0,U,67031,999,2981,.45765467E-3,.12353E-3,0
STARLINK-36131,2025-294C,2026-06-15T09:13:38.843040,15.27579616,.00019672,42.9965,206.0693,282.2648,77.7983,0,U,67032,999,2974,.36491718E-3,.9793E-4,0
STARLINK-36137,2025-294D,2026-06-15T09:08:06.007776,15.27588373,.00009892,42.9992,206.0421,268.0445,92.0293,0,U,67033,999,2974,.59390438E-3,.16121E-3,0
STARLINK-36140,2025-294E,2026-06-15T19:43:20.862336,15.27598706,.00015336,43.0007,204.1952,275.1865,84.8812,0,U,67034,999,2980,.51123015E-3,.1384E-3,0
STARLINK-36085,2025-294F,2026-06-15T19:47:02.394528,15.27599330,.00029447,43.0016,204.2108,268.3558,91.6956,0,U,67035,999,2980,.42778378E-3,.11535E-3,0
STARLINK-36125,2025-294G,2026-06-16T04:00:01.998720,15.27582884,.0001221,42.9983,201.8826,240.5018,7.1436,0,U,67036,999,590,.43435E-4,.933E-5,0
STARLINK-35732,2025-294H,2026-06-15T19:35:55.545504,15.27576339,.00057672,43.0041,204.1531,266.5227,93.4965,0,U,67037,999,2980,.43642128E-3,.11769E-3,0
STARLINK-35775,2025-294J,2026-06-15T09:21:02.945088,15.27590071,.00037841,43.0039,206.1084,283.8075,76.2356,0,U,67038,999,2975,.53023308E-3,.14363E-3,0
STARLINK-35705,2025-294K,2026-06-15T18:53:22.805664,15.27598294,.00022379,42.9976,203.9208,278.9089,81.1509,0,U,67039,999,2980,.71791685E-3,.19557E-3,0
STARLINK-35786,2025-294L,2026-06-15T19:32:14.901504,15.27582315,.00014574,42.9992,204.1362,271.2012,88.8673,0,U,67040,999,2980,.4045162E-3,.10887E-3,0
STARLINK-35765,2025-294M,2026-06-15T19:15:35.661312,15.27579502,.00015557,42.9976,204.0400,274.7551,85.3123,0,U,67041,999,2980,.42739523E-3,.11517E-3,0
STARLINK-35773,2025-294N,2026-06-15T19:11:53.425824,15.27587088,.00017762,43.0008,204.0224,284.3345,75.7309,0,U,67042,999,2980,.45266819E-3,.12218E-3,0
STARLINK-35901,2025-294P,2026-06-15T19:22:59.223360,15.27615661,.00027285,42.9916,204.0840,255.2393,104.8156,0,U,67043,999,2980,.73877908E-3,.20146E-3,0
STARLINK-35884,2025-294Q,2026-06-16T04:00:01.998720,15.27595982,.000182,43.0014,201.5525,274.3393,114.8127,0,U,67044,999,591,.20444E-3,.537E-4,0
STARLINK-35891,2025-294R,2026-06-15T19:41:29.603328,15.27595402,.00026942,43.0040,204.1795,269.6889,90.3654,0,U,67045,999,2980,.4855632E-3,.1313E-3,0
STARLINK-35721,2025-294S,2026-06-15T19:30:23.563872,15.27582609,.00015125,43.0020,204.1203,271.0494,89.0184,0,U,67046,999,2980,.39918886E-3,.1074E-3,0
STARLINK-35779,2025-294T,2026-06-15T19:00:47.045952,15.27589953,.00019407,42.9884,203.9605,280.9361,79.1272,0,U,67047,999,2980,.51716918E-3,.14001E-3,0
STARLINK-35905,2025-294U,2026-06-15T19:17:26.419200,15.27596151,.00027268,42.9825,204.0535,271.2357,88.8182,0,U,67048,999,2980,.55972935E-3,.15181E-3,0
STARLINK-35877,2025-294V,2026-06-14T20:05:26.697120,15.27588914,.0001753,43.0009,209.7020,267.4844,92.5807,0,U,67049,999,2965,.47048372E-3,.1271E-3,0
STARLINK-36078,2025-294W,2026-06-14T09:46:50.656800,15.27595493,.00022839,43.0003,211.6270,275.4288,84.6303,0,U,67050,999,2959,.74079843E-3,.20189E-3,0
STARLINK-35706,2025-294X,2026-06-15T19:10:04.340640,15.27590945,.00012697,42.9954,204.0117,271.4340,88.6366,0,U,67051,999,2980,.11942296E-2,.32758E-3,0
STARLINK-35720,2025-294Y,2026-06-15T18:58:56.205984,15.27587323,.000175,42.9980,203.9486,279.5341,80.5313,0,U,67052,999,2980,.43480597E-3,.11725E-3,0
STARLINK-35739,2025-294Z,2026-06-15T19:24:50.503968,15.27592948,.0001888,42.9966,204.0894,268.1723,91.8912,0,U,67053,999,2980,.65344839E-3,.1777E-3,0
STARLINK-35754,2025-294AA,2026-06-15T19:02:38.020704,15.27592918,.00021683,42.9974,203.9702,275.2795,84.7809,0,U,67054,999,2980,.54958282E-3,.14898E-3,0
STARLINK-35790,2025-294AB,2026-06-15T19:28:33.163680,15.27576971,.00020163,42.9998,204.1110,268.4038,91.6583,0,U,67055,999,2980,.57641151E-3,.15632E-3,0
STARLINK-36143,2025-294AC,2026-06-15T18:55:14.099232,15.27587006,.00019394,43.0001,203.9316,276.6821,83.3810,0,U,67056,999,2980,.58113425E-3,.15767E-3,0
STARLINK-36141,2025-294AD,2026-06-15T09:24:45.074304,15.27596819,.00017333,43.0095,206.1253,282.5075,77.5582,0,U,67057,999,2974,.42780053E-3,.11534E-3,0
STARLINK-35767,2025-294AE,2026-06-15T19:39:39.042432,15.27576195,.00017026,43.0015,204.1689,270.0286,90.0370,0,U,67058,999,2980,.41309046E-3,.11121E-3,0
STARLINK-36230,2025-298A,2026-06-16T03:33:47.092608,14.98332395,.0002931,70.0011,126.2849,269.3580,90.7243,0,U,67075,999,2796,.18591E-3,.2126E-4,0
STARLINK-36240,2025-298B,2026-06-16T03:21:45.637920,14.98333998,.0003339,70.0012,126.2558,265.7147,94.3630,0,U,67076,999,2796,.22478E-3,.259E-4,0
STARLINK-36243,2025-298C,2026-06-16T03:57:50.369184,14.98342832,.0003611,70.0013,126.3443,264.2031,95.8717,0,U,67077,999,2796,.39051E-3,.4571E-4,0
STARLINK-36236,2025-298D,2026-06-16T03:45:46.751040,14.98365086,.000348,70.0016,126.3140,268.7390,91.3370,0,U,67078,999,2796,.81502E-3,.9654E-4,0
STARLINK-36159,2025-298E,2026-06-16T04:15:49.411008,14.98334444,.0002689,70.0015,125.9956,268.7691,91.3160,0,U,67079,999,2797,.20649E-3,.2372E-4,0
STARLINK-36158,2025-298F,2026-06-16T04:09:34.479072,14.98334092,.0002919,70.0016,125.9733,269.2754,90.8071,0,U,67080,999,2797,.21555E-3,.248E-4,0
STARLINK-35864,2025-298G,2026-06-16T04:21:36.417600,14.98333790,.0003572,70.0019,126.0031,252.2903,107.7866,0,U,67081,999,2797,.43967E-3,.5158E-4,0
STARLINK-36035,2025-298H,2026-06-16T04:33:36.624672,14.98338010,.000375,70.0016,126.0328,261.4855,98.5879,0,U,67082,999,2797,.32265E-3,.376E-4,0
STARLINK-36170,2025-298J,2026-06-16T03:33:32.717376,14.98336408,.000297,70.0010,126.2792,270.3307,89.7512,0,U,67083,999,2795,.27956E-3,.3245E-4,0
STARLINK-36166,2025-298K,2026-06-16T03:51:34.509312,14.98319147,.0002657,70.0015,126.3236,272.9855,87.1000,0,U,67084,999,2796,.35542E-4,.331E-5,0
STARLINK-35794,2025-298L,2026-06-16T04:45:39.798720,14.98340186,.0003146,70.0013,126.0623,270.9033,89.1766,0,U,67085,999,2797,.54842E-3,.6458E-4,0
